[{"OBJECT_NAME":"STARLINK-5307","OBJECT_ID":"2023-021AG","EPOCH":"2026-03-09T18:03:19.809504","MEAN_MOTION":14.98334081,"ECCENTRICITY":0.0003547,"INCLINATION":70.0011,"RA_OF_ASC_NODE":184.1828,"ARG_OF_PERICENTER":269.3273,"MEAN_ANOMALY":90.7479,"EPHEMERIS_TYPE":0,"CLASSIFICATION_TYPE":"U","NORAD_CAT_ID":55658,"ELEMENT_SET_NO":999,"REV_AT_EPOCH":16880,"BSTAR":-1.0969531e-5,"MEAN_MOTION_DOT":-2.24e-6,"MEAN_MOTION_DDOT":0},{"OBJECT_NAME":"ION SCV-022","OBJECT_ID":"2025-276S","EPOCH":"2026-03-09T17:53:05.489952","MEAN_MOTION":14.97347265,"ECCENTRICITY":0.00045393,"INCLINATION":97.5376,"RA_OF_ASC_NODE":142.978,"ARG_OF_PERICENTER":154.7099,"MEAN_ANOMALY":205.4346,"EPHEMERIS_TYPE":0,"CLASSIFICATION_TYPE":"U","NORAD_CAT_ID":66682,"ELEMENT_SET_NO":999,"REV_AT_EPOCH":1519,"BSTAR":0.00017276803,"MEAN_MOTION_DOT":1.95e-5,"MEAN_MOTION_DDOT":0}]
